<?xml version="1.0" encoding="UTF-8"?>
<ndm xmlns:xsi="http://www.w3.org/2001/XMLSchema-instance" xsi:noNamespaceSchemaLocation="http://sanaregistry.org/r/ndmxml/ndmxml-1.0-master.xsd"><omm id="CCSDS_OMM_VERS" version="2.0"><header><COMMENT>GENERATED VIA SPACE-TRACK.ORG API</COMMENT><CREATION_DATE>2023-05-21T02:46:43</CREATION_DATE><ORIGINATOR>18 SPCS</ORIGINATOR></header><body><segment><metadata><OBJECT_NAME>SL-3 DEB</OBJECT_NAME><OBJECT_ID>1988-032C</OBJECT_ID><CENTER_NAME>EARTH</CENTER_NAME><REF_FRAME>TEME</REF_FRAME><TIME_SYSTEM>UTC</TIME_SYSTEM><MEAN_ELEMENT_THEORY>SGP4</MEAN_ELEMENT_THEORY></metadata><data><meanElements><EPOCH>2023-05-20T20:23:03.737184</EPOCH><MEAN_MOTION>14.98891207</MEAN_MOTION><ECCENTRICITY>0.00377030</ECCENTRICITY><INCLINATION>97.5159</INCLINATION><RA_OF_ASC_NODE>122.4828</RA_OF_ASC_NODE><ARG_OF_PERICENTER>45.5218</ARG_OF_PERICENTER><MEAN_ANOMALY>18.2013</MEAN_ANOMALY></meanElements><tleParameters><EPHEMERIS_TYPE>0</EPHEMERIS_TYPE><CLASSIFICATION_TYPE>U</CLASSIFICATION_TYPE><NORAD_CAT_ID>24893</NORAD_CAT_ID><ELEMENT_SET_NO>999</ELEMENT_SET_NO><REV_AT_EPOCH>66016</REV_AT_EPOCH><BSTAR>0.00026111000000</BSTAR><MEAN_MOTION_DOT>0.00003143</MEAN_MOTION_DOT><MEAN_MOTION_DDOT>0.0000000000000</MEAN_MOTION_DDOT></tleParameters><userDefinedParameters><USER_DEFINED parameter="SEMIMAJOR_AXIS">6948.458</USER_DEFINED><USER_DEFINED parameter="PERIOD">96.071</USER_DEFINED><USER_DEFINED parameter="APOAPSIS">596.521</USER_DEFINED><USER_DEFINED parameter="PERIAPSIS">544.125</USER_DEFINED><USER_DEFINED parameter="OBJECT_TYPE">DEBRIS</USER_DEFINED><USER_DEFINED parameter="RCS_SIZE">SMALL</USER_DEFINED><USER_DEFINED parameter="COUNTRY_CODE">CIS</USER_DEFINED><USER_DEFINED parameter="LAUNCH_DATE">1988-04-20</USER_DEFINED><USER_DEFINED parameter="SITE">TTMTR</USER_DEFINED><USER_DEFINED parameter="DECAY_DATE"/><USER_DEFINED parameter="FILE">3913175</USER_DEFINED><USER_DEFINED parameter="GP_ID">232193157</USER_DEFINED></userDefinedParameters></data></segment></body></omm></ndm>